{"type": "FeatureCollection", "features": [{"type": "Feature", "properties": {"norad_id": 22675, "name": "COSMOS 2251", "group": "cosmos-2251-debris", "lat": 16.27959326848371, "lon": 118.52386637061228, "alt_km": 794.4240135015953, "timestamp": "2025-12-19T14:48:36.640386+00:00", "meta": {"OBJECT_NAME": "COSMOS 2251", "OBJECT_ID": "1993-036A", "EPOCH": "2025-12-19T05:40:39.579744", "MEAN_MOTION": 14.33206643, "ECCENTRICITY": 0.00242179, "INCLINATION": 74.0399, "RA_OF_ASC_NODE": 304.0128, "ARG_OF_PERICENTER": 24.4587, "MEAN_ANOMALY": 335.7708, "EPHEMERIS_TYPE": 0, "CLASSIFICATION_TYPE": "U", "NORAD_CAT_ID": 22675, "ELEMENT_SET_NO": 999, "REV_AT_EPOCH": 69866, "BSTAR": 3.4707961e-05, "MEAN_MOTION_DOT": 7e-07, "MEAN_MOTION_DDOT": 0}, "tle": {"line1": "1 22675U 93036A   25353.23656921  .00000070  00000+0  34708-4 0  9997", "line2": "2 22675  74.0399 304.0128 0024217  24.4587 335.7708 14.33206643698660"}}, "geometry": {"type": "Point", "coordinates": [118.52386637061228, 16.27959326848371]}}, {"type": "Feature", "properties": {"norad_id": 33757, "name": "COSMOS 2251 DEB", "group": "cosmos-2251-debris", "lat": -5.899887712944732, "lon": 132.74964596841508, "alt_km": 794.5802107083618, "timestamp": "2025-12-19T14:48:36.640412+00:00", "meta": {"OBJECT_NAME": "COSMOS 2251 DEB", "OBJECT_ID": "1993-036E", "EPOCH": "2025-12-19T06:06:39.856608", "MEAN_MOTION": 14.3258258, "ECCENTRICITY": 0.00154882, "INCLINATION": 74.0372, "RA_OF_ASC_NODE": 311.7161, "ARG_OF_PERICENTER": 323.9262, "MEAN_ANOMALY": 153.6378, "EPHEMERIS_TYPE": 0, "CLASSIFICATION_TYPE": "U", "NORAD_CAT_ID": 33757, "ELEMENT_SET_NO": 999, "REV_AT_EPOCH": 88089, "BSTAR": 3.189666e-05, "MEAN_MOTION_DOT": 6.1e-07, "MEAN_MOTION_DDOT": 0}, "tle": {"line1": "1 33757U 93036E   25353.25462797  .00000061  00000+0  31897-4 0  9994", "line2": "2 33757  74.0372 311.7161 0015488 323.9262 153.6378 14.32582580880897"}}, "geometry": {"type": "Point", "coordinates": [132.74964596841508, -5.899887712944732]}}, {"type": "Feature", "properties": {"norad_id": 33758, "name": "COSMOS 2251 DEB", "group": "cosmos-2251-debris", "lat": -58.407848765795364, "lon": 49.83326995359435, "alt_km": 716.0354398092677, "timestamp": "2025-12-19T14:48:36.640427+00:00", "meta": {"OBJECT_NAME": "COSMOS 2251 DEB", "OBJECT_ID": "1993-036F", "EPOCH": "2025-12-19T01:09:54.493632", "MEAN_MOTION": 14.51630047, "ECCENTRICITY": 0.0017286, "INCLINATION": 74.0268, "RA_OF_ASC_NODE": 203.1468, "ARG_OF_PERICENTER": 269.4414, "MEAN_ANOMALY": 243.0436, "EPHEMERIS_TYPE": 0, "CLASSIFICATION_TYPE": "U", "NORAD_CAT_ID": 33758, "ELEMENT_SET_NO": 999, "REV_AT_EPOCH": 88396, "BSTAR": 0.00056914408, "MEAN_MOTION_DOT": 2.258e-05, "MEAN_MOTION_DDOT": 0}, "tle": {"line1": "1 33758U 93036F   25353.04854738  .00002258  00000+0  56914-3 0  9998", "line2": "2 33758  74.0268 203.1468 0017286 269.4414 243.0436 14.51630047883960"}}, "geometry": {"type": "Point", "coordinates": [49.83326995359435, -58.407848765795364]}}, {"type": "Feature", "properties": {"norad_id": 33760, "name": "COSMOS 2251 DEB", "group": "cosmos-2251-debris", "lat": 28.583121090613503, "lon": 79.86039263517837, "alt_km": 782.8883850812963, "timestamp": "2025-12-19T14:48:36.640439+00:00", "meta": {"OBJECT_NAME": "COSMOS 2251 DEB", "OBJECT_ID": "1993-036H", "EPOCH": "2025-12-19T06:19:06.295584", "MEAN_MOTION": 14.35676752, "ECCENTRICITY": 0.00201842, "INCLINATION": 74.0322, "RA_OF_ASC_NODE": 269.4842, "ARG_OF_PERICENTER": 6.294, "MEAN_ANOMALY": 115.6524, "EPHEMERIS_TYPE": 0, "CLASSIFICATION_TYPE": "U", "NORAD_CAT_ID": 33760, "ELEMENT_SET_NO": 999, "REV_AT_EPOCH": 88218, "BSTAR": 7.9712287e-05, "MEAN_MOTION_DOT": 2.04e-06, "MEAN_MOTION_DDOT": 0}, "tle": {"line1": "1 33760U 93036H   25353.26326731  .00000204  00000+0  79712-4 0  9993", "line2": "2 33760  74.0322 269.4842 0020184   6.2940 115.6524 14.35676752882187"}}, "geometry": {"type": "Point", "coordinates": [79.86039263517837, 28.583121090613503]}}, {"type": "Feature", "properties": {"norad_id": 33761, "name": "COSMOS 2251 DEB", "group": "cosmos-2251-debris", "lat": -63.599016305396404, "lon": 94.61844164014452, "alt_km": 751.1861293786442, "timestamp": "2025-12-19T14:48:36.640451+00:00", "meta": {"OBJECT_NAME": "COSMOS 2251 DEB", "OBJECT_ID": "1993-036J", "EPOCH": "2025-12-19T00:54:54.052704", "MEAN_MOTION": 14.42562446, "ECCENTRICITY": 0.00232032, "INCLINATION": 74.0355, "RA_OF_ASC_NODE": 240.4774, "ARG_OF_PERICENTER": 319.8277, "MEAN_ANOMALY": 163.5935, "EPHEMERIS_TYPE": 0, "CLASSIFICATION_TYPE": "U", "NORAD_CAT_ID": 33761, "ELEMENT_SET_NO": 999, "REV_AT_EPOCH": 88325, "BSTAR": 0.00031244451, "MEAN_MOTION_DOT": 1.013e-05, "MEAN_MOTION_DDOT": 0}, "tle": {"line1": "1 33761U 93036J   25353.03812561  .00001013  00000+0  31244-3 0  9996", "line2": "2 33761  74.0355 240.4774 0023203 319.8277 163.5935 14.42562446883257"}}, "geometry": {"type": "Point", "coordinates": [94.61844164014452, -63.599016305396404]}}, {"type": "Feature", "properties": {"norad_id": 33762, "name": "COSMOS 2251 DEB", "group": "cosmos-2251-debris", "lat": 36.452150540131356, "lon": -50.3445706171787, "alt_km": 768.3286501909706, "timestamp": "2025-12-19T14:48:36.640463+00:00", "meta": {"OBJECT_NAME": "COSMOS 2251 DEB", "OBJECT_ID": "1993-036K", "EPOCH": "2025-12-19T05:04:44.417280", "MEAN_MOTION": 14.33665634, "ECCENTRICITY": 0.00152745, "INCLINATION": 74.042, "RA_OF_ASC_NODE": 298.1943, "ARG_OF_PERICENTER": 358.0594, "MEAN_ANOMALY": 108.2335, "EPHEMERIS_TYPE": 0, "CLASSIFICATION_TYPE": "U", "NORAD_CAT_ID": 33762, "ELEMENT_SET_NO": 999, "REV_AT_EPOCH": 88140, "BSTAR": 3.7440214e-05, "MEAN_MOTION_DOT": 7.8e-07, "MEAN_MOTION_DDOT": 0}, "tle": {"line1": "1 33762U 93036K   25353.21162520  .00000078  00000+0  37440-4 0  9995", "line2": "2 33762  74.0420 298.1943 0015274 358.0594 108.2335 14.33665634881403"}}, "geometry": {"type": "Point", "coordinates": [-50.3445706171787, 36.452150540131356]}}, {"type": "Feature", "properties": {"norad_id": 33764, "name": "COSMOS 2251 DEB", "group": "cosmos-2251-debris", "lat": -35.443798153605115, "lon": -111.80057219849343, "alt_km": 768.4706336731033, "timestamp": "2025-12-19T14:48:36.640474+00:00", "meta": {"OBJECT_NAME": "COSMOS 2251 DEB", "OBJECT_ID": "1993-036M", "EPOCH": "2025-12-19T05:31:30.122400", "MEAN_MOTION": 14.39523413, "ECCENTRICITY": 0.00236507, "INCLINATION": 74.0335, "RA_OF_ASC_NODE": 260.6723, "ARG_OF_PERICENTER": 225.2261, "MEAN_ANOMALY": 253.385, "EPHEMERIS_TYPE": 0, "CLASSIFICATION_TYPE": "U", "NORAD_CAT_ID": 33764, "ELEMENT_SET_NO": 999, "REV_AT_EPOCH": 88250, "BSTAR": 0.0002301867, "MEAN_MOTION_DOT": 6.94e-06, "MEAN_MOTION_DDOT": 0}, "tle": {"line1": "1 33764U 93036M   25353.23020975  .00000694  00000+0  23019-3 0  9996", "line2": "2 33764  74.0335 260.6723 0023650 225.2261 253.3850 14.39523413882503"}}, "geometry": {"type": "Point", "coordinates": [-111.80057219849343, -35.443798153605115]}}, {"type": "Feature", "properties": {"norad_id": 33765, "name": "COSMOS 2251 DEB", "group": "cosmos-2251-debris", "lat": 71.48424393761915, "lon": -80.02941381983224, "alt_km": 566.7751853854161, "timestamp": "2025-12-19T14:48:36.640485+00:00", "meta": {"OBJECT_NAME": "COSMOS 2251 DEB", "OBJECT_ID": "1993-036N", "EPOCH": "2025-12-18T21:23:51.939168", "MEAN_MOTION": 15.10331503, "ECCENTRICITY": 0.00649598, "INCLINATION": 74.0077, "RA_OF_ASC_NODE": 160.382, "ARG_OF_PERICENTER": 251.4693, "MEAN_ANOMALY": 225.1901, "EPHEMERIS_TYPE": 0, "CLASSIFICATION_TYPE": "U", "NORAD_CAT_ID": 33765, "ELEMENT_SET_NO": 999, "REV_AT_EPOCH": 89711, "BSTAR": 0.0014035661, "MEAN_MOTION_DOT": 0.0002424, "MEAN_MOTION_DDOT": 0}, "tle": {"line1": "1 33765U 93036N   25352.89157337  .00024240  00000+0  14036-2 0  9992", "line2": "2 33765  74.0077 160.3820 0064959 251.4693 225.1901 15.10331503897112"}}, "geometry": {"type": "Point", "coordinates": [-80.02941381983224, 71.48424393761915]}}, {"type": "Feature", "properties": {"norad_id": 33766, "name": "COSMOS 2251 DEB", "group": "cosmos-2251-debris", "lat": -64.81209496232701, "lon": -20.449959536336866, "alt_km": 768.9967361360677, "timestamp": "2025-12-19T14:48:36.640497+00:00", "meta": {"OBJECT_NAME": "COSMOS 2251 DEB", "OBJECT_ID": "1993-036P", "EPOCH": "2025-12-18T19:14:15.895104", "MEAN_MOTION": 14.34950842, "ECCENTRICITY": 0.00644715, "INCLINATION": 74.1856, "RA_OF_ASC_NODE": 123.9712, "ARG_OF_PERICENTER": 325.6673, "MEAN_ANOMALY": 34.032, "EPHEMERIS_TYPE": 0, "CLASSIFICATION_TYPE": "U", "NORAD_CAT_ID": 33766, "ELEMENT_SET_NO": 999, "REV_AT_EPOCH": 87832, "BSTAR": 0.00038283719, "MEAN_MOTION_DOT": 1.09e-05, "MEAN_MOTION_DDOT": 0}, "tle": {"line1": "1 33766U 93036P   25352.80157286  .00001090  00000+0  38284-3 0  9997", "line2": "2 33766  74.1856 123.9712 0064471 325.6673  34.0320 14.34950842878327"}}, "geometry": {"type": "Point", "coordinates": [-20.449959536336866, -64.81209496232701]}}, {"type": "Feature", "properties": {"norad_id": 33768, "name": "COSMOS 2251 DEB", "group": "cosmos-2251-debris", "lat": 74.03924686847601, "lon": -58.38799401474311, "alt_km": 1003.910853138852, "timestamp": "2025-12-19T14:48:36.640508+00:00", "meta": {"OBJECT_NAME": "COSMOS 2251 DEB", "OBJECT_ID": "1993-036R", "EPOCH": "2025-12-19T00:46:59.056608", "MEAN_MOTION": 13.58460151, "ECCENTRICITY": 0.03666324, "INCLINATION": 74.067, "RA_OF_ASC_NODE": 209.7119, "ARG_OF_PERICENTER": 6.0838, "MEAN_ANOMALY": 103.298, "EPHEMERIS_TYPE": 0, "CLASSIFICATION_TYPE": "U", "NORAD_CAT_ID": 33768, "ELEMENT_SET_NO": 999, "REV_AT_EPOCH": 83381, "BSTAR": 0.0002745073, "MEAN_MOTION_DOT": 2.89e-06, "MEAN_MOTION_DDOT": 0}, "tle": {"line1": "1 33768U 93036R   25353.03262797  .00000289  00000+0  27451-3 0  9992", "line2": "2 33768  74.0670 209.7119 0366632   6.0838 103.2980 13.58460151833813"}}, "geometry": {"type": "Point", "coordinates": [-58.38799401474311, 74.03924686847601]}}]}